      2.10          N: GNSS NAV DATA                        RINEX VERSION / TYPE
fic2rin                                 12/08/2024 00:59:02 PGM / RUN BY / DATE
                                                            END OF HEADER
7  24 12  7  1 59 28.0 -.165649689734D-04  .147792889038D-11  .000000000000D+00
     .340000000000D+02  .471875000000D+01  .480698594455D-08  .305739379204D+00
     .348314642906D-06  .188191146590D-01  .965036451817D-05  .515376800346D+04
     .525568000000D+06 -.350177288055D-06  .177828564650D+01  .270083546638D-06
     .949951773739D+00  .192312500000D+03 -.209055317035D+01 -.833570435840D-08
     .314655963827D-09  .100000000000D+01  .234300000000D+04  .000000000000D+00
     .240000000000D+01  .000000000000D+00 -.107102096081D-07  .340000000000D+02
     .518400000000D+06  .400000000000D+01
17 24 12  8  0  0  0.0  .528404489160D-03 -.156887836056D-10  .000000000000D+00
     .530000000000D+02  .618750000000D+01  .449375861166D-08  .200974833873D+01
     .305473804474D-06  .134760647779D-01  .756420195103D-05  .515358649635D+04
     .000000000000D+00  .230967998505D-06 -.247195360469D+01 -.558793544769D-07
     .966157592548D+00  .230093750000D+03 -.125926081203D+01 -.786461330700D-08
    -.520021660989D-09  .100000000000D+01  .234400000000D+04  .000000000000D+00
     .240000000000D+01  .000000000000D+00 -.107102096081D-07  .530000000000D+02
    -.720000000000D+04  .400000000000D+01
9  24 12  8  0  0  0.0  .477428548038D-03  .163709046319D-10  .000000000000D+00
     .590000000000D+02 -.880625000000D+02  .446161441558D-08  .260342040122D+01
    -.440143048763D-05  .316680432297D-02  .747479498386D-05  .515355466843D+04
     .000000000000D+00 -.372529029846D-08  .584380984922D+00  .651925802231D-07
     .960210694504D+00  .234218750000D+03  .203038498822D+01 -.809105131048D-08
    -.147863301957D-09  .100000000000D+01  .234400000000D+04  .000000000000D+00
     .240000000000D+01  .000000000000D+00  .931322574615D-09  .590000000000D+02
    -.720000000000D+04  .400000000000D+01
8  24 12  8  0  0  0.0  .433051027358D-03  .920863385545D-11  .000000000000D+00
     .540000000000D+02  .122187500000D+02  .497056418681D-08  .205780236542D+01
     .728294253349D-06  .101084923372D-01  .802800059319D-05  .515372022247D+04
     .000000000000D+00 -.251457095146D-06 -.256969575220D+01  .145286321640D-06
     .950412493455D+00  .221375000000D+03  .385718102456D+00 -.825177229087D-08
    -.352514683652D-09  .100000000000D+01  .234400000000D+04  .000000000000D+00
     .340000000000D+01  .000000000000D+00  .465661287308D-08  .540000000000D+02
    -.720000000000D+04  .400000000000D+01
4  24 12  8  0  0  0.0  .492198858410D-03  .625277607469D-11  .000000000000D+00
     .180000000000D+03 -.878437500000D+02  .433232331580D-08  .174173627529D+01
    -.444985926151D-05  .320251949597D-02  .807642936707D-05  .515368779564D+04
     .000000000000D+00 -.353902578354D-07  .645382693888D+00  .633299350739D-07
     .966406923527D+00  .227406250000D+03 -.298909132457D+01 -.805604985253D-08
    -.158935191717D-09  .100000000000D+01  .234400000000D+04  .000000000000D+00
     .240000000000D+01  .000000000000D+00 -.465661287308D-08  .436000000000D+03
    -.720000000000D+04  .400000000000D+01
13 24 12  8  0  0  0.0  .689104199409D-03  .147792889038D-11  .000000000000D+00
     .167000000000D+03 -.949687500000D+02  .416445918073D-08  .175395340699D+01
    -.496394932270D-05  .878825318068D-02  .789575278759D-05  .515369157410D+04
     .000000000000D+00 -.912696123123D-07  .753174365924D+00 -.104308128357D-06
     .972601732058D+00  .235281250000D+03  .974871900036D+00 -.802140555231D-08
    -.115004790411D-09  .100000000000D+01  .234400000000D+04  .000000000000D+00
     .240000000000D+01  .000000000000D+00 -.111758708954D-07  .167000000000D+03
    -.720000000000D+04  .400000000000D+01
19 24 12  8  0  0  0.0  .571457669139D-03  .420641299570D-11  .000000000000D+00
     .850000000000D+02  .831250000000D+01  .450661629009D-08 -.240640756453D+01
     .519677996635D-06  .996780081186D-02  .847689807415D-05  .515359431458D+04
     .000000000000D+00 -.188127160072D-06 -.242773741776D+01  .502914190292D-07
     .965345045422D+00  .219750000000D+03  .269118604138D+01 -.797140346952D-08
    -.418231706744D-09  .100000000000D+01  .234400000000D+04  .000000000000D+00
     .240000000000D+01  .000000000000D+00 -.153668224812D-07  .850000000000D+02
    -.720000000000D+04  .400000000000D+01
18 24 12  8  0  0  0.0 -.660507474095D-03  .227373675443D-12  .000000000000D+00
     .640000000000D+02  .415312500000D+02  .414267255894D-08  .189015364906D-01
     .202283263206D-05  .480722379871D-02  .810436904430D-05  .515372399521D+04
     .000000000000D+00  .335276126862D-07 -.146535776288D+01  .167638063431D-07
     .974065037810D+00  .229156250000D+03 -.293923036290D+01 -.801569102856D-08
    -.104647216119D-09  .100000000000D+01  .234400000000D+04  .000000000000D+00
     .240000000000D+01  .000000000000D+00 -.838190317154D-08  .320000000000D+03
    -.720000000000D+04  .400000000000D+01
11 24 12  8  0  0  0.0 -.752328895032D-03 -.682121026330D-12  .000000000000D+00
     .940000000000D+02  .466875000000D+02  .427767818247D-08  .115351349340D+01
     .249408185482D-05  .177054048982D-02  .926665961742D-05  .515358779335D+04
     .000000000000D+00  .000000000000D+00 -.143792633435D+01  .447034835815D-07
     .965847661649D+00  .204031250000D+03 -.237401825251D+01 -.807997942072D-08
    -.460733477113D-10  .100000000000D+01  .234400000000D+04  .000000000000D+00
     .240000000000D+01  .000000000000D+00 -.884756445885D-08  .862000000000D+03
    -.720000000000D+04  .400000000000D+01
27 24 12  8  0  0  0.0 -.343583524227D-04  .227373675443D-12  .000000000000D+00
     .190000000000D+03  .108437500000D+02  .466840874368D-08  .212998563857D+01
     .437721610069D-06  .129633857869D-01  .805780291557D-05  .515368641281D+04
     .000000000000D+00 -.238418579102D-06 -.254155473233D+01 -.203028321266D-06
     .959451021626D+00  .224250000000D+03  .801396553589D+00 -.802426281418D-08
    -.309298597814D-09  .100000000000D+01  .234400000000D+04  .000000000000D+00
     .240000000000D+01  .000000000000D+00  .186264514923D-08  .190000000000D+03
    -.720000000000D+04  .400000000000D+01
25 24 12  8  0  0  0.0  .498334411532D-03 -.454747350886D-12  .000000000000D+00
     .110000000000D+03  .396250000000D+02  .508949771229D-08 -.162762841056D+01
     .220164656639D-05  .121846888214D-01  .634789466858D-05  .515369389153D+04
     .000000000000D+00  .229105353355D-06  .268469791777D+01  .819563865662D-07
     .949438567447D+00  .248062500000D+03  .110218018515D+01 -.822212819893D-08
     .220009164265D-09  .100000000000D+01  .234400000000D+04  .000000000000D+00
     .340000000000D+01  .000000000000D+00  .558793544769D-08  .110000000000D+03
    -.720000000000D+04  .400000000000D+01
28 24 12  8  0  0  0.0 -.501745380461D-03 -.110276232590D-10  .000000000000D+00
     .106000000000D+03 -.105312500000D+02  .437946813671D-08 -.193832984843D+01
    -.488013029099D-06  .469370046631D-03  .102538615465D-04  .515377516556D+04
     .000000000000D+00 -.931322574615D-08  .162637382957D+01 -.260770320892D-07
     .961028505209D+00  .177500000000D+03  .142416391497D+01 -.792783022595D-08
     .248224625266D-09  .100000000000D+01  .234400000000D+04  .000000000000D+00
     .240000000000D+01  .000000000000D+00 -.931322574615D-08  .362000000000D+03
    -.720000000000D+04  .400000000000D+01
23 24 12  8  0  0  0.0  .378959812224D-03  .773070496507D-11  .000000000000D+00
     .710000000000D+02 -.406250000000D+00  .407909848225D-08 -.109839648067D+01
    -.372529029846D-07  .495332363062D-02  .469014048576D-05  .515362566376D+04
     .000000000000D+00  .894069671631D-07 -.463265419287D+00 -.100582838058D-06
     .982239036987D+00  .303593750000D+03 -.288708151001D+01 -.802426281418D-08
     .835749098019D-10  .100000000000D+01  .234400000000D+04  .000000000000D+00
     .240000000000D+01  .000000000000D+00 -.838190317154D-08  .583000000000D+03
    -.720000000000D+04  .400000000000D+01
26 24 12  7 23 59 44.0 -.671949237585D-06 -.137561073643D-10  .000000000000D+00
     .440000000000D+02  .385312500000D+02  .552773025215D-08 -.240007519928D+01
     .167265534401D-05  .967985833995D-02  .674463808537D-05  .515373747063D+04
     .604784000000D+06  .912696123123D-07  .273902652153D+01 -.160187482834D-06
     .930158781784D+00  .234156250000D+03  .591339167513D+00 -.846678124685D-08
     .231795369493D-09  .100000000000D+01  .234300000000D+04  .000000000000D+00
     .240000000000D+01  .000000000000D+00  .651925802231D-08  .440000000000D+02
     .599700000000D+06  .400000000000D+01
7  24 12  7 23 59 44.0 -.164429657161D-04  .147792889038D-11  .000000000000D+00
     .140000000000D+02 -.359375000000D+01  .479234247744D-08 -.707083240284D+00
     .800937414169D-07  .188222525176D-01  .109914690256D-04  .515377064514D+04
     .604784000000D+06 -.558793544769D-07  .177765050159D+01  .378116965294D-06
     .949972724188D+00  .165031250000D+03 -.209041233523D+01 -.837856328651D-08
     .311441544219D-09  .100000000000D+01  .234300000000D+04  .000000000000D+00
     .240000000000D+01  .000000000000D+00 -.107102096081D-07  .140000000000D+02
     .599850000000D+06  .400000000000D+01
25 24 12  7 23 59 44.0  .498334411532D-03 -.454747350886D-12  .000000000000D+00
     .300000000000D+01  .396250000000D+02  .508949771229D-08 -.162996267776D+01
     .220164656639D-05  .121846866095D-01  .634789466858D-05  .515369388580D+04
     .604784000000D+06  .229105353355D-06  .280511330009D+01  .819563865662D-07
     .949438565984D+00  .248062500000D+03  .110218077178D+01 -.822212819893D-08
     .220009164265D-09  .100000000000D+01  .234300000000D+04  .000000000000D+00
     .240000000000D+01  .000000000000D+00  .558793544769D-08  .300000000000D+01
     .600000000000D+06  .400000000000D+01
